[{"OBJECT_NAME":"CUBESX-HSE 3 (RS42S)","OBJECT_ID":"2023-091N","EPOCH":"2026-03-09T22:57:25.321248","MEAN_MOTION":15.286147,"ECCENTRICITY":0.00127191,"INCLINATION":97.5203,"RA_OF_ASC_NODE":133.4295,"ARG_OF_PERICENTER":86.5376,"MEAN_ANOMALY":273.7318,"EPHEMERIS_TYPE":0,"CLASSIFICATION_TYPE":"U","NORAD_CAT_ID":57178,"ELEMENT_SET_NO":999,"REV_AT_EPOCH":14925,"BSTAR":0.00059055694,"MEAN_MOTION_DOT":0.00016417,"MEAN_MOTION_DDOT":0},{"OBJECT_NAME":"STARLINK-32746","OBJECT_ID":"2025-014L","EPOCH":"2026-03-09T07:20:09.459456","MEAN_MOTION":15.2759143,"ECCENTRICITY":0.00024876,"INCLINATION":42.9997,"RA_OF_ASC_NODE":156.1243,"ARG_OF_PERICENTER":288.6677,"MEAN_ANOMALY":71.3904,"EPHEMERIS_TYPE":0,"CLASSIFICATION_TYPE":"U","NORAD_CAT_ID":62745,"ELEMENT_SET_NO":999,"REV_AT_EPOCH":6320,"BSTAR":0.0013102348,"MEAN_MOTION_DOT":0.00035983,"MEAN_MOTION_DDOT":0}]
